{
    "links": {
        "self": "http://www.neowsapp.com/rest/v1/neo/3667135?api_key=iIulBulltgU6a56xZRHN4H3l9WmuAYTsLGpBGhQ2"
    },
    "id": "3667135",
    "neo_reference_id": "3667135",
    "name": "(2014 GH45)",
    "designation": "2014 GH45",
    "nasa_jpl_url": "http://ssd.jpl.nasa.gov/sbdb.cgi?sstr=3667135",
    "absolute_magnitude_h": 24.9,
    "estimated_diameter": {
        "kilometers": {
            "estimated_diameter_min": 0.0278326768,
            "estimated_diameter_max": 0.0622357573
        },
        "meters": {
            "estimated_diameter_min": 27.8326768072,
            "estimated_diameter_max": 62.2357573367
        },
        "miles": {
            "estimated_diameter_min": 0.0172944182,
            "estimated_diameter_max": 0.0386714948
        },
        "feet": {
            "estimated_diameter_min": 91.3145593761,
            "estimated_diameter_max": 204.1855621004
        }
    },
    "is_potentially_hazardous_asteroid": false,
    "close_approach_data": [
        {
            "close_approach_date": "2013-10-22",
            "close_approach_date_full": "2013-Oct-22 05:27",
            "epoch_date_close_approach": 1382419620000,
            "relative_velocity": {
                "kilometers_per_second": "14.4529637516",
                "kilometers_per_hour": "52030.6695056956",
                "miles_per_hour": "32329.834615914"
            },
            "miss_distance": {
                "astronomical": "0.2924982049",
                "lunar": "113.7818017061",
                "kilometers": "43757108.431863563",
                "miles": "27189406.3900326494"
            },
            "orbiting_body": "Earth"
        },
        {
            "close_approach_date": "2014-04-02",
            "close_approach_date_full": "2014-Apr-02 20:55",
            "epoch_date_close_approach": 1396472100000,
            "relative_velocity": {
                "kilometers_per_second": "13.2162110372",
                "kilometers_per_hour": "47578.3597337612",
                "miles_per_hour": "29563.342469014"
            },
            "miss_distance": {
                "astronomical": "0.0808077282",
                "lunar": "31.4342062698",
                "kilometers": "12088664.018258934",
                "miles": "7511547.5058599292"
            },
            "orbiting_body": "Earth"
        }
    ],
    "orbital_data": {
        "orbit_id": "6",
        "orbit_determination_date": "2017-04-06 08:41:38",
        "first_observation_date": "2014-04-07",
        "last_observation_date": "2014-05-06",
        "data_arc_in_days": 29,
        "observations_used": 24,
        "orbit_uncertainty": "8",
        "minimum_orbit_intersection": ".0779967",
        "jupiter_tisserand_invariant": "5.308",
        "epoch_osculation": "2456756.5",
        "eccentricity": ".1304093186204849",
        "semi_major_axis": "1.166621595564767",
        "inclination": "25.39713841617651",
        "ascending_node_longitude": "194.9361847731636",
        "orbital_period": "460.2496258120088",
        "perihelion_distance": "1.014483268199223",
        "perihelion_argument": "298.1703458587799",
        "aphelion_distance": "1.318759922930311",
        "perihelion_time": "2456688.708332256595",
        "mean_anomaly": "53.02557355602097",
        "mean_motion": ".7821842317956469",
        "equinox": "J2000",
        "orbit_class": {
            "orbit_class_type": "APO",
            "orbit_class_description": "Near-Earth asteroid orbits which cross the Earth’s orbit similar to that of 1862 Apollo",
            "orbit_class_range": "a (semi-major axis) > 1.0 AU; q (perihelion) < 1.017 AU"
        }
    },
    "is_sentry_object": false
}